name,city,phone,addr,state
Cosme Durbann,Lubbock,806-681-6976,6270 Goodland Hill,TX
Fernando Thake,Omaha,402-837-8324,7 Rockefeller Place,NE
Maurits Priddis,Albany,518-187-6624,3679 Express Street,NY
Cary Jendas,Fairbanks,907-197-1223,7436 Lawn Crossing,AK
Honor Rubinow,Wichita,316-371-8829,06 Badeau Road,KS
Gretchen Trighton,Trenton,609-569-3393,4 David Terrace,NJ
Lynnet Bramford,Charlotte,704-876-7898,318 Little Fleur Park,NC
Bidget Pyecroft,Lees Summit,816-764-6026,68318 Almo Crossing,MO
Weber Carmo,Pueblo,719-142-9043,497 Cottonwood Point,CO
Mackenzie Jorck,Des Moines,515-713-8236,20877 Kedzie Place,IA
Annabelle Eacott,Charleston,304-173-7158,086 Scoville Avenue,WV
Tobi Shears,Abilene,325-495-8768,069 Canary Pass,TX
Katie Kenealy,Roanoke,540-504-3535,0143 Hooker Drive,VA
Jim Spellecy,Loretto,763-724-0494,66 Elmside Street,MN
Jarvis Jedrachowicz,Bradenton,941-699-3260,0325 Transport Road,FL
Fancy Hallick,High Point,336-506-5570,4 Johnson Road,NC
Harli Kauscher,Seattle,206-416-0175,0 South Place,WA
Claudine Martinuzzi,Washington,202-974-1238,88 Gulseth Court,DC
Miriam Boothebie,Memphis,901-135-8949,16 Ryan Drive,TN
Pinchas Vannoort,Houston,281-557-3585,7 Stephen Terrace,TX
Thatcher Iannello,Shreveport,318-650-1791,02660 Mosinee Plaza,LA
Georgette Barday,Houston,713-356-7220,126 Menomonie Lane,TX
Leoline Remon,San Jose,714-476-8170,234 Toban Circle,CA
Yancy Woolfitt,San Diego,619-353-1897,30 Thackeray Park,CA
Francyne Illyes,College Station,979-743-9582,1 Knutson Alley,TX
Tracey Stemp,Boston,617-556-7656,3592 Brown Junction,MA
Rice Klassmann,Birmingham,205-821-7425,63110 Goodland Street,AL
Rosalind Lightbody,West Palm Beach,561-393-0661,10064 Starling Drive,FL
Fancy Skerm,Louisville,502-310-0370,3855 Del Sol Crossing,KY
Nichole Vautin,Dayton,937-594-4853,68377 Eggendart Center,OH
Rutger Bruckenthal,Birmingham,205-809-9100,513 Fallview Hill,AL
Margi Raggles,Washington,202-921-1498,0469 East Place,DC
Fred Hammell,Tacoma,206-333-1307,8 Duke Road,WA
Giovanni Douglass,Washington,202-712-6100,7748 8th Center,DC
Keslie Traill,Saint Paul,612-833-9236,88 Bellgrove Point,MN
Libbie Tingley,Maple Plain,952-694-8816,511 Sutherland Trail,MN
Eydie Ogg,Dallas,469-177-0975,20048 Sunnyside Road,TX
Vernor Keep,Boise,208-507-5370,04 Mallard Circle,ID
Jaine Hartrick,Beaufort,843-966-5904,721 Eastwood Center,SC
Kary Mowett,El Paso,915-720-5605,04 Shasta Plaza,TX
Humfrey Crowdson,Chula Vista,619-820-8793,17 Eagan Hill,CA
Martguerita Triggel,Portland,503-668-3448,65055 Jana Pass,OR
Nina Spencock,Louisville,502-733-3604,3 Pine View Place,KY
Miltie Cattach,Syracuse,315-634-1090,4 Summer Ridge Center,NY
Vallie Melarkey,Panama City,850-334-5475,6662 David Plaza,FL
Augy Ridsdell,Dallas,214-567-9027,2212 Hudson Center,TX
Paulie Blann,Knoxville,865-127-5923,7 Village Avenue,TN
Christi Breese,Kansas City,816-256-3300,415 Bartillon Place,MO
Fey Pead,Columbus,706-497-1641,2 Stoughton Park,GA
Gardie Matzel,Sunnyvale,650-175-7198,6 North Park,CA
Melisandra Pischof,Oklahoma City,405-986-3180,721 Bonner Terrace,OK
Olympie McInteer,El Paso,915-332-8642,071 Elgar Plaza,TX
Susanne Fontelles,Des Moines,515-190-0271,676 Northridge Terrace,IA
Stevana Burkert,Tucson,520-114-8995,11790 Division Lane,AZ
Mehetabel Carlaw,Cleveland,216-349-7300,0 Summerview Place,OH
Godfree Lippi,North Little Rock,501-364-7112,70638 Stephen Hill,AR
Imogen Lynnitt,Roanoke,540-746-9274,20 Superior Lane,VA
Geralda Trevett,Dallas,214-648-3477,36361 Dawn Plaza,TX
Alison Calder,Boston,617-500-6738,27326 Dorton Point,MA
Jobyna Chirm,Charlotte,704-584-6125,40 Sherman Road,NC
Meryl Tuft,Atlanta,404-582-7588,55247 Monterey Terrace,GA
Kellen Golda,Marietta,770-383-8136,7 School Place,GA
Reena Pidgeley,Hartford,203-444-9149,1705 Truax Place,CT
Shirlene Seakings,Green Bay,920-336-3263,230 Nancy Terrace,WI
Gerard Daintry,Clearwater,813-842-2389,3311 Fairfield Parkway,FL
Ingaborg Happel,Washington,202-719-8647,92 Heath Pass,DC
Sinclair Speir,Rochester,585-956-4121,12 Sunfield Plaza,NY
Lynna MacKenney,Hicksville,516-274-3473,2 2nd Court,NY
Gaspar Reskelly,Bethlehem,610-845-1241,58259 Hazelcrest Pass,PA
Lizzy D'Elia,Hagerstown,240-348-6852,693 Lindbergh Park,MD
Malina Sibbson,Beaumont,409-681-9676,130 5th Center,TX
Thibaud Cockshoot,Littleton,303-811-4919,64 Lake View Junction,CO
Lem Lorryman,New Orleans,504-599-5876,5346 Dakota Road,LA
Derrick Della Scala,Cambridge,508-818-5775,64 Ronald Regan Trail,MA
Forster Phillipp,Stockton,209-159-8463,0 Wayridge Hill,CA
Gae Buckthought,Albany,518-184-5071,6930 Lotheville Way,NY
Rheba Knapman,New Orleans,504-439-5818,79 Sutherland Center,LA
Granville Roja,Corpus Christi,361-809-4333,3 Washington Road,TX
Tracey Grandham,Oxnard,805-636-3662,1 Monterey Point,CA
Nicola Blackbrough,Rochester,315-482-6504,92714 Pine View Park,NY
Doralyn Aberhart,Des Moines,515-859-4106,821 Swallow Place,IA
Jean Yushin,Phoenix,602-673-2805,36 Gale Park,AZ
Sloan Lepoidevin,Santa Ana,949-381-6023,2 Gerald Park,CA
Sigfried Cridlon,Mountain View,650-829-7460,599 Grim Way,CA
Archambault Smaleman,New York City,212-943-9236,9 Mariners Cove Hill,NY
Dalis Bowyer,Lexington,859-203-7384,28583 Warbler Hill,KY
Harrison Zuann,Oakland,510-928-3023,08259 Dixon Road,CA
Keefe Newdick,New Orleans,504-914-1917,4 Dexter Plaza,LA
Alano Hryniewicki,Columbus,614-973-4119,9 Maywood Center,OH
Christie Moreno,Augusta,706-316-2994,6463 Garrison Center,GA
Filmer Franzman,Charlotte,704-458-5831,9836 Alpine Drive,NC
Melodie Jodlowski,Milwaukee,414-849-4083,64 Pennsylvania Lane,WI
Bunnie Benger,Fort Wayne,260-429-6116,1064 Lindbergh Junction,IN
Lebbie Enderson,Jacksonville,904-870-6015,70 Shopko Parkway,FL
Gun Drake,Greensboro,336-724-9664,2274 Barby Street,NC
Felic Aspole,Fort Lauderdale,954-653-3530,894 Macpherson Crossing,FL
Gavin Attride,Pittsburgh,412-802-8368,0 Victoria Pass,PA
Nathanael Carnie,Madison,608-958-4538,8294 Elgar Road,WI
Asher Tenman,Muskegon,231-472-8794,05979 Eliot Drive,MI
Ryun Croan,Midland,989-583-3445,3640 Morning Alley,MI
Felizio Grason,Omaha,402-947-9148,108 Katie Parkway,NE
Virgina Elston,Tyler,903-771-0607,01 Victoria Terrace,TX
Rebbecca Allan,El Paso,915-817-2260,86 Bobwhite Center,TX
Silvan Bleasby,Waterbury,203-550-6095,2557 Eastwood Trail,CT
Aaron Oxtoby,Richmond,804-939-0847,7577 Tomscot Place,VA
Lucian Gissop,Vancouver,360-805-0583,44 Oriole Court,WA
Katuscha Zanicchelli,Fresno,559-472-9606,26 Prairie Rose Place,CA
Gabriellia Schruurs,Charlotte,704-177-8314,82289 Transport Terrace,NC
Alys Jaksic,Irvine,714-228-0010,6971 International Circle,CA
Kial Draco,Scottsdale,602-211-3261,540 Coleman Center,AZ
Neale Stood,Columbus,662-248-7816,093 Havey Road,MS
Isador Dodshon,New Orleans,504-306-9045,58 Tennessee Alley,LA
Carly Gaughan,Charlotte,704-721-8442,9 Armistice Place,NC
Orsola Hun,Anaheim,714-939-6677,41 Valley Edge Plaza,CA
Rheta Leynagh,Fort Lauderdale,754-706-2202,07067 Sauthoff Crossing,FL
Brigham Barthrop,Fort Wayne,260-216-2815,53921 Nova Trail,IN
Mallorie McElroy,Peoria,309-230-6763,0819 Northwestern Circle,IL
Darleen MacIlraith,Daytona Beach,386-452-4957,23212 Norway Maple Alley,FL
Liliane Nannetti,Lexington,859-986-8603,49 Hanover Alley,KY
Geri Staries,Denver,720-863-3824,87975 Haas Hill,CO
Douglas Piatkow,Charlotte,704-563-9758,4574 West Way,NC
Dorian Keford,El Paso,915-421-0785,09060 Spohn Alley,TX
Alie Kleinmintz,Silver Spring,240-646-5115,47763 Cherokee Center,MD
Ariela Mival,Cincinnati,513-989-8708,289 Grover Junction,OH
Illa Oxshott,Midland,989-387-5770,69 Miller Avenue,MI
Dale Hark,San Jose,408-166-7823,7 Utah Avenue,CA
Jacenta Gosart,Amarillo,806-464-6047,2 Lakewood Lane,TX
Francisco Galvan,Metairie,504-285-4809,04561 Columbus Hill,LA
Obed Ounsworth,Portland,503-252-5275,54093 Scott Trail,OR
Caterina Snook,Charleston,304-464-4768,97 Bluestem Junction,WV
Adrien Storkes,Chattanooga,423-339-4372,48247 Bayside Circle,TN
Phyllida Grattan,Phoenix,602-379-2196,280 Blaine Way,AZ
Chantalle Gerhts,Providence,401-585-7579,7 Trailsway Avenue,RI
Terrie Winborn,New Orleans,504-205-6839,40880 Eagle Crest Place,LA
Rosie Simunek,Newark,973-985-5808,89798 Northfield Road,NJ
Davy O'Donoghue,Los Angeles,213-327-7494,3011 Crest Line Parkway,CA
Marti Fairchild,Raleigh,919-709-1105,7797 Maryland Park,NC
Harry Lenz,El Paso,915-887-1766,9 Morningstar Plaza,TX
Clarence Mila,El Paso,915-572-4233,75709 2nd Street,TX
Lovell Kleinber,Gatesville,254-928-1087,5 Glacier Hill Trail,TX
Clemens Guilliatt,Vienna,571-876-5691,53338 Springs Park,VA
Allyn Gannicleff,Houston,713-893-1409,3234 Hazelcrest Pass,TX
Jethro Heinz,Waco,254-977-1968,9129 Kipling Parkway,TX
Kimball Scintsbury,Raleigh,919-516-3908,094 Haas Street,NC
Ferdinanda Bassil,Washington,202-396-1418,3 Waxwing Parkway,DC
Hewet Bootton,Dallas,469-418-5058,31 Gina Point,TX
Rusty Kirimaa,Amarillo,806-616-1789,963 2nd Road,TX
Annecorinne Dumphries,Bethesda,301-163-4118,0792 Maywood Trail,MD
Krystyna Inchboard,Montgomery,334-501-1905,28227 Bartillon Place,AL
Durward Sherwood,Washington,202-918-0490,062 Lawn Pass,DC
Amie Dunton,Madison,608-168-6584,26177 Hoard Junction,WI
Kristien Schistl,Loretto,763-577-5861,33690 Del Mar Hill,MN
Wendye Pleat,Pensacola,850-984-0417,18 Continental Plaza,FL
Huntlee Icom,Charlotte,704-764-3532,28662 Stephen Hill,NC
Anett Stradling,Kansas City,816-573-3659,3 Cordelia Way,MO
Karola Riggey,Tucson,520-212-9451,9 West Place,AZ
Reuven Polotti,Evansville,812-684-1480,469 Twin Pines Center,IN
Kent Storr,Bakersfield,805-270-6435,0064 Heffernan Court,CA
Eydie Domoni,Charlotte,704-807-6531,45414 Beilfuss Terrace,NC
Petunia Imlin,Asheville,828-416-8681,66 Saint Paul Place,NC
Had Pestricke,New Haven,203-618-5451,68580 Dottie Road,CT
Denys Sappy,Atlanta,404-756-2731,90877 Jenna Alley,GA
Glynda Spilsbury,Seattle,206-606-7296,28 Lukken Pass,WA
Julio Bantick,Buffalo,716-520-3576,6912 Vidon Way,NY
Kessiah Gorey,Zephyrhills,813-958-2002,4731 Morningstar Center,FL
Aeriela Cookley,San Jose,408-577-7424,90 Hermina Hill,CA
Loria Chatelet,Topeka,785-561-1794,727 Manitowish Center,KS
Mabel Cradock,Petaluma,707-496-7365,84141 Tony Parkway,CA
Ulrich Farnhill,Fort Lauderdale,954-556-1529,30366 Holmberg Parkway,FL
Aland Kohneke,Huntington,304-845-4967,829 Gateway Crossing,WV
Sloane Collison,Seattle,425-717-9082,174 Bay Circle,WA
Freddy Gillfillan,Winston Salem,336-215-6449,5107 Roth Avenue,NC
Gail Sidebottom,Pittsburgh,412-852-8139,901 Merrick Pass,PA
Olenka Brealey,Lubbock,806-140-9835,1489 Oakridge Alley,TX
Lorinda Anton,Spring Hill,352-877-9710,7 Delaware Alley,FL
Domini Klarzynski,Stockton,209-966-5526,2 Sullivan Junction,CA
Crystie Membry,Richmond,804-477-4536,597 Warner Avenue,VA
Dav Fidler,Macon,478-131-0729,73427 Northland Way,GA
Sonny Rennie,Nashville,615-556-6070,9 Loftsgordon Drive,TN
Nadeen Carnachen,New York City,212-249-8513,88 Shoshone Plaza,NY
Brendin Rymell,Warren,330-378-2518,3 Dexter Lane,OH
Bess Durran,Shawnee Mission,913-442-1937,6232 Dawn Hill,KS
Jedd Filmer,Brooklyn,212-344-7647,3424 Anzinger Drive,NY
Faun Lapere,Houston,713-722-1862,23859 Dorton Crossing,TX
Leila Kinsey,Longview,903-754-2767,670 Melby Avenue,TX
Ado Chalice,Santa Fe,505-445-8410,40834 Memorial Court,NM
Britta Faithorn,Houston,713-368-1983,0547 Corscot Plaza,TX
James Goldingay,Washington,202-333-0613,75 Oak Valley Trail,DC
Olly Tarpey,Syracuse,315-663-5050,0484 Hansons Way,NY
Corney Omar,Lawrenceville,404-674-3084,08 Pierstorff Hill,GA
Toni O' Culligan,Wichita,316-844-9272,5 Hoffman Center,KS
Nettie Bozward,North Little Rock,501-646-9226,529 Golf Course Junction,AR
Nevin Diplock,Houston,281-687-6975,5441 Chive Hill,TX
Kimmy Robottom,Seattle,425-357-9520,97 Hayes Point,WA
Sibel Faires,Duluth,678-512-7341,1 Farwell Terrace,GA
Cammie Vowell,Newark,862-749-1348,17572 Delladonna Street,NJ
Wilmette Tart,Raleigh,919-664-6014,32672 Glacier Hill Parkway,NC
Tildy Aery,Las Vegas,702-305-4507,316 Glendale Drive,NV
Gareth Ruske,Chattanooga,423-341-5774,160 Harper Alley,TN
Lea Perdue,Jefferson City,573-896-1567,85534 Sundown Way,MO
Lyman Wrightam,Chicago,312-522-5925,8193 Bunker Hill Road,IL
Robinetta Bashford,Pensacola,850-221-1306,24 Packers Hill,FL
Robena Johansen,Tucson,520-434-5141,8502 Buena Vista Drive,AZ
Neils Tropman,Sioux City,712-599-1645,13 Meadow Valley Plaza,IA
Kaile Westpfel,Norfolk,757-277-3793,5759 Chinook Plaza,VA
Marga Wessel,Tucson,520-320-4047,4 Luster Point,AZ
Roxine Uphill,San Diego,619-795-7909,45 Shopko Plaza,CA
Collen Tilliard,Washington,202-310-5081,46616 Fordem Parkway,DC
Pablo Yegorchenkov,Sunnyvale,408-856-9980,8065 Gateway Circle,CA
Pauly Glasscoe,Jacksonville,904-696-2048,484 Corscot Pass,FL
Gaynor Tomasz,Memphis,901-473-5035,5 Golf View Circle,TN
Maribeth Colmer,Trenton,609-378-1322,224 Pankratz Junction,NJ
Cornelius Glendza,Birmingham,334-144-2165,58 Farwell Way,AL
Beatrice Heaslip,Hartford,860-138-1820,0994 Corben Place,CT
Maura MacTague,Las Vegas,702-757-7669,7010 Donald Point,NV
Sigmund McKimm,Levittown,267-709-6914,1 Pierstorff Circle,PA
Rudiger Larter,Washington,202-943-6874,64 Transport Park,DC
Pier Handasyde,Norwalk,203-580-9393,029 Holmberg Lane,CT
Tarra Glisenan,Santa Cruz,831-511-0972,68705 Rigney Street,CA
Engracia Gaynsford,Washington,202-373-6949,53 Nobel Alley,DC
Ilse Daintrey,Silver Spring,202-603-0700,21 Butterfield Alley,MD
Aggie Exon,Atlanta,404-189-7173,38 Maryland Street,GA
Pyotr Johns,Miami,305-614-4428,341 Harbort Junction,FL
Kaylil Vampouille,Chattanooga,423-499-8606,67426 Mcbride Road,TN
Mignonne Dumbell,Jacksonville,904-476-5169,918 Golf View Alley,FL
Malissa Blakiston,Pittsburgh,412-959-6336,8032 Sullivan Alley,PA
Heloise Melan,Albany,518-221-1639,59 North Pass,NY
Jewel Kenny,Amarillo,806-149-8653,7 Luster Park,TX
Audy Koppes,Philadelphia,215-194-5510,423 Lunder Court,PA
Crawford Streets,New York City,917-789-8238,73 Forest Dale Lane,NY
Lucian Cossum,Baton Rouge,225-665-0483,804 Tony Alley,LA
Sela Brealey,Saint Paul,952-374-7294,8 Dayton Circle,MN
Thoma Hiseman,Oakland,510-566-6686,310 Mallard Park,CA
Rich Fulks,Saint Paul,612-656-3175,3373 Warrior Terrace,MN
Niven Lippard,Lansing,517-765-4313,37266 Sloan Plaza,MI
Horatia Ostridge,Providence,401-850-9038,7996 Atwood Drive,RI
Joelie Averill,Laurel,301-456-9799,17286 Thackeray Trail,MD
Shellie Saddler,Youngstown,330-269-2697,95 Sugar Pass,OH
Armando Sprey,Houston,281-466-2468,98 Porter Street,TX
Faulkner Piken,San Francisco,415-627-5370,4 Northridge Pass,CA
Shandee Mebius,Miami,786-239-5221,841 Gulseth Street,FL
Marijo Bonwick,Bronx,917-429-0383,02830 Scoville Alley,NY
Pamella Quick,Trenton,609-729-9097,21310 Meadow Ridge Plaza,NJ
Athene Sollis,Lynchburg,434-274-8148,61 Blaine Hill,VA
Adi Lowell,Santa Cruz,831-592-1932,6861 Mayfield Park,CA
Bartholomeus Franzetti,Toledo,419-794-3627,6270 Reindahl Drive,OH
Guillaume Waterfield,San Antonio,210-567-1662,4 Red Cloud Avenue,TX
Homerus Bode,Boca Raton,561-899-4999,23 Burrows Street,FL
Lorrie Pryell,Clearwater,813-325-8450,20 Pearson Junction,FL
Tarra Figg,Young America,952-410-2772,333 Mallard Circle,MN
Minna Danes,San Bernardino,909-712-9374,98730 Prentice Alley,CA
Wood McKirdy,Newark,862-921-2170,7383 Judy Way,NJ
Alyosha Bickers,San Diego,619-961-7879,38 Mccormick Lane,CA
Fayina Morat,Washington,202-724-8722,648 Judy Parkway,DC
Decca Elkington,Wichita,316-145-9895,822 Ramsey Crossing,KS
Drusie Garbutt,El Paso,915-266-3100,227 Sutherland Drive,TX
Yehudi Wysome,Bradenton,941-455-1067,80762 Heath Pass,FL
Francesco Reddick,Oxnard,805-923-9261,581 Alpine Plaza,CA
Waldo Peller,Duluth,678-204-9247,625 Huxley Avenue,GA
Clarette Lanegran,El Paso,915-940-1427,3 Manley Park,TX
Clotilda Le Grice,Dallas,214-825-9189,955 Pepper Wood Terrace,TX
Salvatore Cockrem,Knoxville,865-560-2140,48 Lakewood Alley,TN
Regen Bunclark,Denver,720-774-9763,63 Dixon Circle,CO
Crystal Loveitt,Spartanburg,864-277-5975,6 Lawn Way,SC
Maxine Artiss,Oklahoma City,405-712-1109,56 Toban Way,OK
Edwin Sclanders,Columbus,614-225-4510,3 Sloan Road,OH
Nara Hamlen,Boulder,303-747-5546,43150 Hudson Terrace,CO
Pen Kippen,Los Angeles,323-743-1752,73330 Marcy Way,CA
Sheba Wyllcock,Louisville,502-210-7519,1 Esker Avenue,KY
Liuka Fiddiman,Evansville,812-224-8102,3396 Gulseth Drive,IN
Bili Matteoni,New Orleans,504-888-9687,65710 Grim Place,LA
Benedikta Gymblett,Orlando,407-512-1519,0 Veith Park,FL
Bertha Dourin,Washington,202-806-1334,5 Park Meadow Junction,DC
Kala Richens,Dayton,937-459-4475,3 Meadow Valley Place,OH
Keslie Matuszkiewicz,Memphis,901-930-8231,61071 Morning Circle,TN
Wallis Philbin,Birmingham,205-970-7119,1651 Brown Way,AL
Gaylene Wharram,Ashburn,571-339-8074,374 Darwin Street,VA
Tabb Brazer,Baton Rouge,225-677-4003,753 Dexter Place,LA
Anatollo Reinger,Lawrenceville,404-917-8950,0 Fuller Place,GA
Talia Legging,Omaha,402-282-0389,26 Mesta Hill,NE
Belia Maasz,Watertown,857-392-3618,4831 Graceland Point,MA
Leena Spennock,Cincinnati,513-792-7325,93 Spenser Drive,OH
Murray Berriman,Memphis,901-827-3923,39 Kenwood Trail,TN
Lauritz Danilishin,Spokane,509-485-7998,332 Fulton Road,WA
Hedwiga Lorkings,New York City,646-498-0938,97905 Kim Circle,NY
Norbie Malarkey,Gary,219-601-0899,475 Florence Hill,IN
Johnathan Carles,Jamaica,516-694-1215,52 Merry Drive,NY
Alexei Lawday,Tacoma,253-873-1219,472 Kensington Avenue,WA
Barney Yearn,Philadelphia,215-736-7353,3 Carey Crossing,PA
Jaine Sleeford,Denver,303-927-8971,20 Dovetail Terrace,CO
Barbaraanne Jewess,Orange,714-345-2443,12 Jay Trail,CA
Marilyn Vowden,Wilmington,302-951-5446,7 Rowland Trail,DE
Marylynne Girardez,Houston,713-288-8488,8319 Arrowood Way,TX
Alvan Westmerland,Indianapolis,317-259-3077,60571 West Road,IN
Rutger Free,Santa Monica,310-186-9382,94 Oriole Pass,CA
Jackie Roadknight,Washington,202-448-0340,21 Northport Alley,DC
Bird Dradey,Charlotte,704-688-9073,630 Bartillon Court,NC
Jacenta Brumham,New Haven,203-925-6667,2780 Summer Ridge Parkway,CT
Chris Whiteman,Little Rock,501-263-9892,57822 Colorado Court,AR
Kitti Gavriel,Brooklyn,347-548-4892,7 Delladonna Avenue,NY
Dorian Filmer,Montgomery,334-148-5248,15493 Spenser Way,AL
Lewie Taylot,Charlotte,704-246-2165,6 Darwin Center,NC
Pansie Venney,Longview,903-691-0227,32 Marquette Hill,TX
Leonardo Broadfoot,Springfield,417-463-4395,90677 Sheridan Avenue,MO
Margi Handy,Bakersfield,661-643-7160,056 Elgar Way,CA
Marlena Peal,Roanoke,540-271-6866,55152 Beilfuss Hill,VA
Olivia Polding,Oakland,415-968-1353,58781 Sage Hill,CA
Cully Campagne,Chicago,312-478-9730,2955 Onsgard Way,IL
Tull Findlay,Richmond,804-244-3474,1 Grasskamp Terrace,VA
Craggie Glading,Albuquerque,505-796-5307,85 Cottonwood Parkway,NM
Emlynne Mitskevich,Fresno,559-936-7464,33441 Londonderry Circle,CA
Chrissy Baldacchi,Mansfield,419-683-3789,6398 Norway Maple Terrace,OH
Timothee Thecham,Alexandria,318-670-9799,78746 Westerfield Drive,LA
Patrica Lamble,Daytona Beach,407-347-0140,0617 Brown Plaza,FL
Kaja Edelheid,Vero Beach,772-717-3213,05 Riverside Pass,FL
Abbot Bails,Chicago,312-786-6412,72424 Bonner Junction,IL
Gabbi Gresley,Grand Rapids,616-107-4073,45 Annamark Plaza,MI
Gonzales Ganforth,Saint Louis,314-214-4792,05 Lakewood Gardens Plaza,MO
Torie Summerbell,Brea,714-120-7478,019 Golf View Crossing,CA
Joelle Kingdom,Boston,617-288-3235,56 Vera Park,MA
Grady Bugbird,Birmingham,205-915-7523,63 Packers Center,AL
Chico Rameau,Oklahoma City,405-882-9675,3 Weeping Birch Center,OK
Phillipe Iapico,Fort Wayne,260-362-1621,1354 Northwestern Plaza,IN
Rasia Muscott,Detroit,313-758-3895,56 Iowa Junction,MI
Frederique Beauchamp,Cleveland,216-869-4215,5770 New Castle Way,OH
Shurwood McIlveen,Louisville,502-238-1510,534 Green Ridge Center,KY
Isabella Basterfield,Akron,330-638-6049,3 Ohio Alley,OH
Mycah Genever,Paterson,973-443-4577,568 Texas Circle,NJ
Roy Davers,Montgomery,334-820-0369,24709 Center Alley,AL
Teressa Folliss,Lake Charles,337-641-8696,841 Kingsford Place,LA
Carrol Sporton,Lincoln,402-292-5914,39196 Schurz Place,NE
Lorilyn Berge,Phoenix,623-244-6754,284 Gateway Court,AZ
Melosa Fearnyhough,Killeen,254-921-6791,9860 Mallard Hill,TX
Doreen Paulack,Santa Monica,310-667-1452,5 Independence Way,CA
Marc Sheavills,Madison,608-367-1446,027 Canary Crossing,WI
Zoe Jonson,Las Vegas,702-313-8452,048 Mallard Park,NV
Denver Broggio,Baltimore,410-660-3495,5325 Comanche Alley,MD
Chelsie Pigeon,Norfolk,757-785-6537,5 Lake View Junction,VA
Bord Chaloner,Fort Wayne,260-372-3556,59009 5th Drive,IN
Adler Skettles,Jacksonville,904-672-0470,3678 Saint Paul Way,FL
Ruddy Eaddy,San Diego,619-530-9434,7569 Crest Line Alley,CA
Rodger Connochie,Norfolk,757-251-5971,11281 Texas Way,VA
Cristionna Elmhurst,Fullerton,559-755-4733,015 Forster Street,CA
Edie Callway,Denver,303-963-0553,6310 Amoth Trail,CO
Adolphus Bickerstaffe,Brockton,508-144-6097,3 Birchwood Avenue,MA
Reggie Proback,Charleston,843-569-9115,690 Veith Road,SC
Sheila-kathryn Canner,Harrisburg,717-710-1015,4 Laurel Way,PA
Chico Gellett,San Antonio,210-939-7331,702 Corscot Center,TX
Keelby Lindenfeld,Stamford,203-956-1493,43567 Pearson Drive,CT
Sherilyn Close,Cleveland,216-686-3118,3460 Ruskin Place,OH
Xenos Petrov,Lawrenceville,678-748-5817,51 Riverside Crossing,GA
Theodor Rawlin,Shreveport,318-985-3703,0 Chinook Center,LA
Etan McAllen,Dallas,214-922-9611,698 Jackson Road,TX
Joycelin Geffinger,Sarasota,941-686-4556,924 School Way,FL
Shay Stendall,Fort Lauderdale,754-492-7290,2 Kropf Lane,FL
Mitchael Danovich,Wichita,316-975-6619,40 Birchwood Trail,KS
Beale Mathan,Washington,202-593-7748,0165 Blaine Way,DC
Esma Reolfi,Raleigh,919-310-4378,690 Johnson Avenue,NC
Othilie Hubbert,Philadelphia,215-140-2196,00 Texas Drive,PA
Cassondra Durrell,Topeka,785-687-7352,69412 Dottie Parkway,KS
Kara-lynn Wrathall,Harrisburg,717-430-6308,43288 Division Pass,PA
Danica McMurraya,Lakeland,863-459-4643,2786 1st Drive,FL
Mella Cronk,West Palm Beach,561-494-7036,223 Elgar Court,FL
Rochell Osman,Myrtle Beach,843-270-4569,04760 Nova Street,SC
Charmine Gissop,Mobile,251-942-6013,1875 Merrick Court,AL
Darcy Jerome,Punta Gorda,941-620-3505,8783 Katie Plaza,FL
Sherilyn Scandroot,Lawrenceville,404-155-0278,5847 Sheridan Center,GA
Willie Jenney,El Paso,915-699-0921,6 Heath Place,TX
Bethany MacPhee,Appleton,920-881-6932,9108 Cottonwood Hill,WI
Georgianna Hastewell,Bloomington,812-502-5594,865 Florence Pass,IN
Camel Shoard,Houston,713-320-6099,659 Grim Point,TX
Rabbi Topes,Lansing,517-654-6326,309 Nelson Road,MI
Fleming Burgoyne,Macon,478-341-8096,5876 New Castle Terrace,GA
Natalie Jeannon,Dallas,214-955-6008,24 Canary Court,TX
Uta Lowen,Newark,862-488-1504,9 Pankratz Court,NJ
Issie Hanny,Fort Myers,239-456-8467,21 Thompson Street,FL
Barnie Kilroy,Birmingham,205-298-6307,45 6th Plaza,AL
Skipper Perrott,New York City,646-119-5414,21 Bunker Hill Parkway,NY
Flin Batram,Dallas,214-116-7625,0 International Trail,TX
Denis Burehill,Charlotte,704-555-4882,14603 Homewood Court,NC
Inesita Cockerham,Annapolis,301-407-5490,0034 Mosinee Park,MD
Rocky Sneaker,Santa Fe,505-810-9177,88 Sage Drive,NM
Roddy Swann,Sunnyvale,650-933-7012,082 Miller Center,CA
Menard Ibert,Lubbock,806-749-1620,76530 Stuart Road,TX
Sissie Cristofari,Salem,971-781-8475,783 Manufacturers Alley,OR
Wileen Leefe,Buffalo,716-537-6714,2 Blaine Plaza,NY
Aldon Barry,Topeka,785-219-7641,7902 Canary Street,KS
Bryn Walder,Raleigh,919-895-7761,5 Coolidge Park,NC
Valeda Pescod,Chicago,708-697-2845,48374 Karstens Way,IL
Malvina Gobbet,Wichita,316-443-3908,4305 Brown Alley,KS
Auberon Cathee,Canton,330-775-8370,6 Village Green Plaza,OH
Cello Dickings,New York City,646-291-2592,23 Cody Road,NY
Abra Zanre,Philadelphia,215-260-6871,7 Golf Lane,PA
Jody Dottridge,Greensboro,336-436-3162,8 Golden Leaf Street,NC
Edita Cansdell,Lexington,859-527-1359,1 Debs Pass,KY
Justino Tuffley,Des Moines,515-738-6013,3111 Petterle Crossing,IA
Netty Alenov,Fairfield,203-203-8198,82 Dovetail Hill,CT
Ludovika Reisen,Albany,518-306-7435,7546 Hoepker Way,NY
Willette Arundell,Memphis,901-573-3398,23 Boyd Junction,TN
Faustine Rosencwaig,Sacramento,916-770-3483,409 Hoepker Crossing,CA
Immanuel Warrior,Charleston,304-637-3711,68 Towne Street,WV
Prudence Lubomirski,Indianapolis,317-999-6174,014 Cambridge Street,IN
Brady Oyley,Davenport,563-806-4098,7311 Merchant Parkway,IA
Laurice Hedan,Silver Spring,301-185-9929,4806 Kensington Drive,MD
Eleanor Pescott,Jacksonville,904-924-7971,183 Rockefeller Drive,FL
Allyn Dwine,Tallahassee,850-440-7378,12 Warner Alley,FL
Zane Arkin,Katy,832-319-0043,194 Hoffman Hill,TX
Seymour Pancoast,Colorado Springs,719-801-4648,30039 Utah Road,CO
Jacquenetta Jursch,Winston Salem,336-874-8459,54 Eagle Crest Trail,NC
Darbee Jendrach,Anniston,256-323-3910,75 Shopko Parkway,AL
Sherill Bernardes,Fort Worth,817-960-3807,956 Randy Parkway,TX
Walker Christofor,Phoenix,602-715-8281,2 Blue Bill Park Drive,AZ
Vidovik Piddletown,Hampton,804-989-5057,13 Lighthouse Bay Crossing,VA
Melodee Tunkin,Topeka,785-993-8859,6148 Jenna Center,KS
Loreen Wintersgill,Salt Lake City,801-953-6310,8114 Lake View Park,UT
Minnaminnie Rosenblad,Raleigh,919-698-2245,34088 Summit Street,NC
Philis Cashen,Las Vegas,702-527-8151,137 Fairfield Drive,NV
Dunstan Tunnock,Kissimmee,407-744-5611,0111 Truax Point,FL
Gan Aldington,Tampa,813-616-2379,6 Spohn Terrace,FL
Tamiko Craisford,New York City,917-123-7088,6 Brown Plaza,NY
Perri Gabrieli,Topeka,785-543-1446,5 Waxwing Parkway,KS
Arch Hutt,Cleveland,216-549-7372,34106 Iowa Alley,OH
Brandea Boone,Wilkes Barre,570-898-1323,2 Crest Line Terrace,PA
Ozzy Jenckes,Oklahoma City,405-324-1888,647 Basil Road,OK
Aridatha Conor,Sacramento,916-231-7074,09243 Rieder Junction,CA
Hattie Jachtym,Lexington,859-877-8068,481 Hagan Junction,KY
Howey Ferson,Lehigh Acres,239-400-1311,3 Novick Drive,FL
Mozelle Purveys,Albany,518-819-6000,22333 Johnson Hill,NY
Margit Trays,Chicago,312-468-9444,0 8th Junction,IL
Jobi Geal,Rochester,585-944-5767,347 Memorial Crossing,NY
Dietrich Ephgrave,Indianapolis,317-180-5766,96 Pine View Pass,IN
Lenee Bartomeu,Savannah,912-171-3454,0 Clove Plaza,GA
Timmie Bouskill,Peoria,309-419-7221,612 Dixon Park,IL
Lucius Lochhead,Cincinnati,513-977-9014,81465 Jenna Junction,OH
Park Elsby,Houston,713-245-9407,134 Glacier Hill Center,TX
Jami Fessby,Denver,303-489-9526,4 Bobwhite Pass,CO
Reinwald Sawood,Washington,202-806-1802,2 Kensington Trail,DC
Jenica Bernardin,Ridgely,410-786-1072,8633 Northport Terrace,MD
Elie Reisen,Naples,305-226-2874,50248 Shoshone Road,FL
Tamiko Sollime,Syracuse,315-414-5799,2 Longview Center,NY
Merci Collison,Boise,208-686-4097,2 Beilfuss Alley,ID
Riordan Follen,Denton,940-129-7407,70735 Di Loreto Plaza,TX
Ofelia Daine,Oklahoma City,405-303-8899,21638 Jay Way,OK
Jimmie Binnell,Austin,512-354-9582,0 Schiller Trail,TX
Allayne Arnley,Houston,713-703-3990,856 Packers Place,TX
Rakel Jiruch,Chicago,773-767-1452,8 Main Hill,IL
Linn Musicka,Monroe,318-629-5630,142 Melvin Street,LA
Sheryl Hunday,Honolulu,808-247-2256,629 Stoughton Trail,HI
Merola Matthieson,Melbourne,321-634-6307,24 Delladonna Lane,FL
Moina Philipsohn,Portland,503-113-6367,9478 Lunder Drive,OR
Stacee Verriour,Staten Island,718-215-3354,88961 Gerald Terrace,NY
Rutter Keese,Jamaica,718-623-4937,0 Eagan Park,NY
Garnette Rohmer,Corpus Christi,361-156-2419,7771 Vera Drive,TX
Arleyne Elsdon,Cleveland,216-889-1323,501 Sunnyside Trail,OH
Merrilee Browett,Los Angeles,562-650-3914,8 Mcguire Hill,CA
Johnette Watters,Minneapolis,612-854-5774,0190 American Ash Center,MN
Gearalt Bleakley,North Las Vegas,702-658-2413,91467 Jay Circle,NV
Adrianna MacBey,Memphis,901-644-5100,96 Manitowish Point,TN
Allegra Ollerearnshaw,Phoenix,602-683-8209,17 Green Ridge Drive,AZ
Veronika Guntrip,Madison,608-346-0547,48093 Memorial Drive,WI
Mercy Dykes,Huntington,304-465-9887,65 Barby Circle,WV
Ware Casina,Washington,202-553-8742,888 Northview Way,DC
Francyne Prator,Detroit,313-136-1423,21909 Bluejay Way,MI
Carita Whiteford,Dallas,214-665-4704,3 Burning Wood Avenue,TX
Ayn Vasyatkin,Washington,202-782-0750,114 Loftsgordon Drive,DC
Caroline Nineham,Saint Louis,314-839-3008,04 Glacier Hill Trail,MO
Alessandra Iacobassi,Peoria,309-653-2324,9258 Glendale Junction,IL
Sherline Vallentin,Canton,330-112-1117,63 Milwaukee Drive,OH
Kinny Napthine,Santa Barbara,702-302-2056,344 Oak Junction,CA
Dulsea Roderick,Dallas,469-344-7996,11 Village Green Circle,TX
Guilbert Rolling,Louisville,502-496-1012,41692 Melvin Park,KY
Byram Freeborn,Lynchburg,434-589-1927,8021 Mcbride Trail,VA
Klarika Hulles,Raleigh,919-169-2636,0 Mitchell Junction,NC
Jephthah Eneas,Fort Worth,682-825-5112,2 West Parkway,TX
Koral Plaistowe,Boston,617-404-5570,9 Golf Center,MA
Kearney Brenston,Durham,919-698-6580,73176 Saint Paul Crossing,NC
Tessy Chapier,Herndon,757-626-9767,82540 Del Mar Pass,VA
Darby Bentke,Memphis,901-189-7083,06206 Pankratz Terrace,TN
Web Oake,Jackson,601-154-8436,0 Sachs Road,MS
Erma Gatenby,Baltimore,410-893-2449,22567 Marquette Junction,MD
Bambi Leete,Madison,608-197-3343,0 Summerview Point,WI
Mannie Yarnall,Newark,973-778-0322,8 Buell Center,NJ
Desiree Buye,Houston,281-782-2117,0353 Birchwood Court,TX
Hilliary Girth,Orlando,321-931-3432,340 Crownhardt Terrace,FL
Herc Gusticke,Waco,254-906-8751,92991 Prentice Court,TX
Dagny Macenzy,Philadelphia,267-945-3120,3 Leroy Pass,PA
Emmanuel Russo,Albuquerque,505-272-9662,157 Lakewood Gardens Plaza,NM
Dedra Elkin,Austin,512-736-2181,49 Thierer Road,TX
Dexter McMearty,San Francisco,415-501-8696,01189 Lake View Court,CA
Isabelita Lemary,Seattle,425-733-6424,6 Chive Plaza,WA
Consuelo Litster,Baltimore,410-729-5110,55330 Stone Corner Park,MD
Merrel Samples,Saint Joseph,816-354-8232,752 Ridgeview Trail,MO
Anabelle Cambling,Albuquerque,505-969-5625,6385 Manufacturers Parkway,NM
Mordecai Gini,Farmington,248-182-5396,60 Quincy Pass,MI
Jae Vaugham,Huntsville,256-233-4739,07 Almo Circle,AL
Zerk Heasman,Waterbury,203-132-6205,737 Corben Avenue,CT
Kelila Coghill,Bradenton,727-657-2316,773 Rutledge Crossing,FL
Ania Pratten,Flint,810-950-6108,0297 Raven Plaza,MI
Joni Deakes,Las Vegas,702-649-2803,13 Calypso Point,NV
Stacia Pechell,Miami,786-473-6398,754 Shopko Circle,FL
Ianthe Binley,Midland,989-897-0562,8537 Porter Plaza,MI
Terese Norwood,Toledo,419-397-0878,60176 Talisman Junction,OH
Chev Holby,South Lake Tahoe,530-677-1971,1548 East Hill,CA
Christoforo Mort,Washington,202-851-5067,558 Rigney Trail,DC
Dacie Harbord,Springfield,413-628-2535,99474 Armistice Circle,MA
Karim Beecheno,Phoenix,602-371-5580,58 Vermont Trail,AZ
Sara-ann McClifferty,Bronx,917-928-8494,3 International Court,NY
Maddie Bryns,Metairie,504-935-4913,471 Hollow Ridge Trail,LA
Kaylil Lanston,Wichita,316-330-4501,53 Steensland Place,KS
Amitie Sacaze,Pensacola,850-151-1170,73826 Northridge Avenue,FL
Quinlan Colclough,Los Angeles,818-589-0820,62738 Parkside Alley,CA
Ryon Starkings,Wilmington,302-950-9097,0264 Farmco Trail,DE
Mariska Craddy,Saint Louis,314-567-8626,731 Manufacturers Circle,MO
Adrian Minchinton,Farmington,248-725-2255,36106 Bartillon Way,MI
Elton Mettetal,Boston,617-869-6187,41233 Laurel Drive,MA
Cirillo Murdoch,Atlanta,404-151-2357,3490 Sage Street,GA
Anitra Turbat,Huntington,304-595-8347,96602 Spaight Drive,WV
Byrom Caley,Colorado Springs,719-533-7806,10095 Monterey Road,CO
Chad Cassley,Gastonia,704-557-2413,1929 Sherman Place,NC
Markos Goch,Los Angeles,323-964-5286,5235 Graceland Trail,CA
Gradeigh Trunks,San Antonio,830-981-0197,027 Buena Vista Pass,TX
Ianthe Raund,Tallahassee,850-368-9005,5035 Northwestern Plaza,FL
Dorri Billson,Phoenix,602-753-5545,39 Old Gate Circle,AZ
Kahaleel Bazell,Dallas,972-294-2994,0231 Debs Trail,TX
Ruttger Wandless,Saint Louis,314-217-6239,33 Derek Drive,MO
Ashia Anders,Dallas,214-758-1953,13 Clyde Gallagher Center,TX
Vera Tapsell,Minneapolis,763-827-7942,46374 Oak Valley Alley,MN
Gray Gladdin,Orange,858-744-2099,0631 Thackeray Avenue,CA
Itch Temporal,Delray Beach,561-934-8222,089 Boyd Center,FL
Cayla Chishull,Anaheim,714-304-0465,39165 Schlimgen Crossing,CA
Kimberly Connal,Topeka,785-764-2058,45 Westport Hill,KS
Trev Restall,Fort Worth,682-708-9587,481 Hudson Hill,TX
Dulcine Bernat,Las Vegas,702-425-4403,36 Sommers Park,NV
Cordy Shovel,Houston,713-806-5807,4 Arapahoe Circle,TX
Cristy McCuthais,New York City,212-142-7199,644 Hagan Pass,NY
Edsel Tovey,Chicago,312-324-9125,98610 Ruskin Place,IL
Tamra Cosens,Portland,971-967-0025,150 Claremont Crossing,OR
Griffin Ponceford,Iowa City,319-604-1941,052 Eastlawn Pass,IA
Julianna Portch,Milwaukee,920-738-5931,05 Longview Street,WI
Jeannette Tisun,Chicago,312-904-2344,9030 Bunker Hill Center,IL
Lorene Thonger,El Paso,915-851-3317,450 Carberry Plaza,TX
Loretta Asmus,Chicago,312-583-5868,17608 Cody Drive,IL
Diahann Yashanov,Annapolis,410-982-2597,4917 Monument Terrace,MD
Barney Swindlehurst,Marietta,770-862-3001,480 Menomonie Circle,GA
Dorri Steeples,Wilmington,302-127-5231,9 Vernon Park,DE
Linc Haggus,Dallas,214-464-0759,1 Mccormick Pass,TX
Paddy Collens,Southfield,586-332-7604,3 Hauk Drive,MI
Trula Delahunty,El Paso,915-995-6370,9226 Eliot Avenue,TX
Tori O'Fihillie,Huntington,304-963-9947,81 Fairfield Hill,WV
Jeth Wrathmall,San Francisco,415-732-3035,4 Clyde Gallagher Terrace,CA
Nicoli Moyers,Evansville,812-532-6502,7572 Brown Junction,IN
Iorgo Rispine,Boise,208-875-8100,8 Browning Circle,ID
Kally Pasby,Saint Louis,314-313-3817,16 Blue Bill Park Crossing,MO
Daphne Bernt,San Antonio,210-377-2423,75128 Grim Park,TX
Enoch Turfrey,Saint Louis,314-148-8706,23901 Anhalt Lane,MO
Lonnie Goodding,Miami,786-496-4463,7 American Pass,FL
Naoma Fewkes,Washington,202-778-2488,00 Merrick Point,DC
Kirsti Lomasny,Houston,713-967-6259,330 Sugar Court,TX
Cyrille Cuttell,Austin,512-313-1425,2357 Sherman Alley,TX
Alice Messager,Indianapolis,317-696-7609,8 Green Ridge Street,IN
Fiona Milesap,Albuquerque,505-920-0466,8253 Northland Street,NM
Borden Gerault,Reno,775-276-8423,0411 Comanche Place,NV
Cliff Shakle,Lake Worth,561-126-0785,83599 Nelson Drive,FL
Marji Willan,Glendale,323-647-9946,5 Dottie Drive,CA
Roth Hayworth,Dallas,214-594-5624,84942 Eagan Drive,TX
Siffre Isson,Brooklyn,718-722-0151,5070 Golf Junction,NY
Maurita Capeling,Cincinnati,513-319-7065,06 Kennedy Place,OH
Katleen Duester,New York City,917-535-9267,53 Sugar Court,NY
Timmy Filkin,Irvine,714-607-8239,5 Grover Plaza,CA
Kittie Kitto,Honolulu,808-191-1613,46 Basil Road,HI
Flossi Brazil,New York City,212-614-1588,458 Lawn Alley,NY
Tan Lettson,New York City,212-126-8887,5 Carey Drive,NY
Karel Kington,Spokane,509-719-4356,17 Lighthouse Bay Center,WA
Ondrea Speer,Ventura,805-725-4210,9 Fisk Park,CA
Stavro Yuryichev,Joliet,815-498-3854,668 Comanche Terrace,IL
Erena Gianneschi,Sarasota,941-243-1948,28090 Butternut Avenue,FL
Ike Lanphier,Los Angeles,818-364-9235,68769 Bunting Park,CA
Benjamen Pleaden,Sacramento,916-585-0955,37040 Arizona Alley,CA
Sidoney Hickford,Las Vegas,702-685-8521,1709 Brown Drive,NV
Gabbie Dobrowolski,Anchorage,907-867-8592,77 Westend Crossing,AK
Mirabella Grandison,Albuquerque,505-106-1810,95 Pleasure Hill,NM
Erhard Shilling,Minneapolis,612-608-2807,32 Bluejay Point,MN
Eugen Althrope,San Jose,714-864-3163,67394 Pankratz Junction,CA
Sarajane Jotham,Panama City,850-269-7592,09914 Lunder Place,FL
Shaun Gadesby,Saint Petersburg,727-120-4665,0845 Bluestem Plaza,FL
Aprilette Ugoletti,El Paso,915-408-0423,613 Quincy Crossing,TX
Veradis Rumble,Columbus,614-564-0181,2501 Red Cloud Way,OH
Will Maruska,Louisville,502-187-4692,8181 Milwaukee Pass,KY
Anestassia Miell,Pueblo,719-237-4413,25015 Pennsylvania Hill,CO
Bette-ann McKeggie,Sioux Falls,605-659-1880,9942 Dorton Parkway,SD
Meade Quilliam,Charleston,304-281-1286,33 David Plaza,WV
Alina Balkwill,Buffalo,716-846-8711,42714 Eggendart Park,NY
Julee Junkison,Miami,305-764-1110,3620 Westport Circle,FL
Jeramie Manjot,Saginaw,989-852-3231,3499 Florence Parkway,MI
Marcile Sine,Newark,862-687-2047,08 Garrison Center,NJ
Bernie Morgon,Lincoln,402-820-7321,4 Springview Junction,NE
Holly Carthy,Louisville,502-188-9452,2 Hintze Court,KY
Zena Towhey,San Jose,408-272-8244,533 Loftsgordon Terrace,CA
Neill Corton,New York City,212-140-7381,8716 Holmberg Place,NY
Kristofer Salomon,San Bernardino,909-332-9878,0 Florence Way,CA
Clemmy Caron,Flint,810-849-1799,151 Charing Cross Park,MI
Liane Bradden,San Francisco,415-281-4844,16020 Toban Way,CA
Janice Dominec,Jackson,601-516-4764,974 8th Way,MS
Gilly Iacomi,Montgomery,334-284-4259,15 Helena Lane,AL
Liv Guirau,Los Angeles,213-331-7293,33112 Lukken Crossing,CA
Jeanelle Crookshank,Sacramento,916-986-2480,8 Sunfield Plaza,CA
Neala Preon,Phoenix,602-632-1487,36871 Ruskin Street,AZ
Caldwell Halleday,Wichita,316-388-9087,55976 Briar Crest Court,KS
Barnie Clemow,Erie,814-231-6021,4981 Norway Maple Road,PA
Joane McCullen,Nashville,615-311-7698,9950 Heffernan Circle,TN
Stephen Newby,Des Moines,515-619-6395,2 Atwood Road,IA
Nomi Sussems,Anchorage,907-328-6477,6 Corben Road,AK
Kass McPhate,Jersey City,201-932-9433,191 Sunbrook Point,NJ
Karisa Salters,Amarillo,806-364-4888,35 Melby Hill,TX
Quinta Rosten,West Palm Beach,561-107-5864,8 Fairview Center,FL
Charmine Pietasch,El Paso,915-166-3005,2945 Dwight Avenue,TX
Lev Nimmo,Falls Church,571-387-8503,70374 Anzinger Point,VA
Erv Issard,Salt Lake City,801-852-1303,03966 Parkside Alley,UT
Turner Tanswell,Des Moines,515-655-3202,75 Esch Junction,IA
Amelia Shenton,Charlotte,704-254-1679,61 Cordelia Crossing,NC
Darcie Boardman,Oceanside,858-536-5554,09 Waubesa Drive,CA
Maybelle Dinesen,Allentown,610-565-6810,08 Mayer Trail,PA
Alden Ruppelin,Colorado Springs,719-361-8019,5429 Oakridge Circle,CO
Zechariah Shoreman,Tampa,813-693-4113,612 Reinke Way,FL
Polly Nell,Redwood City,650-503-2756,2 Little Fleur Road,CA
Konstance Boughtflower,Buffalo,716-818-6401,0390 Laurel Trail,NY
Dynah Blunsum,Fredericksburg,540-616-4360,28 Nova Hill,VA
Floris Flecknoe,San Diego,619-670-0540,72323 Clove Way,CA
Daloris Gregol,Baton Rouge,225-543-6916,244 Pearson Pass,LA
Natalya Chamley,Laurel,301-129-8180,07138 Graceland Place,MD
Genni Harber,Huntington,304-399-3541,98 Darwin Hill,WV
Janek MacCombe,Charleston,304-300-0137,0839 Judy Place,WV
Hedda Deeley,Seattle,206-759-7188,9658 Nevada Avenue,WA
Valerie Tarquinio,Sioux City,712-718-9462,3 Becker Crossing,IA
Sharlene Dawbery,Raleigh,919-199-3771,80 Annamark Park,NC
Josepha Cotte,Columbus,706-658-6455,99501 Texas Avenue,GA
Gilbertine Oxer,Houston,713-795-5889,60648 Wayridge Parkway,TX
Lusa Guitton,Lubbock,806-848-1856,122 Cody Plaza,TX
Mia Hailston,San Bernardino,909-834-9151,08272 Scott Point,CA
Gertrude Biasioli,Houston,713-588-2837,9 Clyde Gallagher Park,TX
Mikkel Jollie,Roanoke,540-701-5196,98 Knutson Terrace,VA
Anet Grimwade,Topeka,785-184-0875,94951 Vera Pass,KS
Hubert Kingman,Omaha,402-431-2574,6944 Mosinee Road,NE
Hazlett Louis,Las Vegas,702-588-8934,657 Kenwood Lane,NV
Anders McNickle,Seattle,360-116-8711,29 Vermont Lane,WA
Isac Rabson,Washington,202-488-2055,0 Delladonna Street,DC
Kristan Shakshaft,Boise,208-103-3151,35 Susan Point,ID
Tova Blanche,Washington,202-775-4191,11640 Village Green Terrace,DC
Beverly Ashton,Gainesville,404-179-8281,3 Coleman Center,GA
Neil Deedes,Tallahassee,850-342-3664,640 Glendale Alley,FL
Perceval Gawthorp,Columbia,573-933-4274,1 Heffernan Junction,MO
Ninetta Renner,Tacoma,253-717-8369,2639 Corscot Terrace,WA
Eilis Pantone,Harrisburg,717-377-4333,7 Heath Lane,PA
Aldric MacRury,Lansing,517-607-5066,3825 8th Point,MI
Pebrook Pistol,Hialeah,786-718-5615,813 Chive Hill,FL
Terrell Kellitt,Tyler,903-244-6330,75 Commercial Street,TX
Birk Watman,Los Angeles,323-566-3021,048 Merchant Trail,CA
Cherin Hampshire,Mobile,251-420-9808,73 Novick Way,AL
Danika Capp,Atlanta,404-544-9613,13804 Manley Hill,GA
Addison Aronin,Tucson,520-387-1131,9704 Westport Center,AZ
Bryn O'Cullen,Salt Lake City,801-461-2417,999 Coleman Street,UT
Clair Bodker,Lake Worth,561-506-3954,133 Kinsman Terrace,FL
Muffin Matussow,Billings,406-702-7048,32767 Hollow Ridge Parkway,MT
Cybil Craister,Albany,229-642-1108,6761 Fieldstone Center,GA
Siobhan Tremathick,Dallas,469-366-2395,1 South Way,TX
Marcela Desborough,Cedar Rapids,319-807-7156,377 Scofield Parkway,IA
Nanice Shalloe,Pinellas Park,850-912-1551,572 Summer Ridge Trail,FL
Staci Redfern,Tucson,520-520-2142,086 Mcguire Terrace,AZ
Angele Briars,Concord,925-658-8943,55328 Cordelia Plaza,CA
Mike Stefanovic,Houston,281-145-2858,79 Spaight Point,TX
Amalie McAuliffe,Augusta,706-456-1749,669 Sundown Place,GA
Maxy Brodest,Southfield,586-710-9352,3931 Morningstar Crossing,MI
Christa Klimaszewski,Birmingham,205-197-4661,628 Forest Run Parkway,AL
Darcee Ivankin,Kansas City,816-909-9165,5341 Annamark Trail,MO
Evered Wreford,Palm Bay,561-200-5800,021 Messerschmidt Crossing,FL
Noelle Grimsey,New York City,212-168-9692,3229 Porter Crossing,NY
Savina Skevington,Akron,330-341-3788,1 Elmside Avenue,OH
Bent Trustram,Lansing,517-294-4635,3 Helena Circle,MI
Adler Mugglestone,Fresno,209-196-4516,8500 Acker Plaza,CA
Ruth Suttie,Tulsa,918-953-3404,9385 Fremont Avenue,OK
Mirna Lightbowne,Toledo,419-674-5396,639 Melvin Plaza,OH
Konrad Spencley,El Paso,915-898-3853,959 Sundown Court,TX
Cass Hancorn,Hartford,860-267-8358,346 Merry Alley,CT
Constantino Garfit,Fort Lauderdale,754-336-2743,4853 Oak Valley Street,FL
Gabbi Rasper,Austin,512-699-3264,220 Hansons Plaza,TX
Gradey Benck,Portland,971-321-7671,491 Ridgeway Junction,OR
Imelda Utley,Richmond,804-648-1609,76 South Alley,VA
Renault Acutt,Sacramento,916-690-9468,51 Warner Point,CA
Elizabeth Goscar,San Antonio,210-573-3483,6 Butternut Circle,TX
Kira Kidd,Austin,512-728-2142,327 Lunder Street,TX
Tasha Artus,Dallas,214-724-7616,670 Roth Center,TX
Kial Cissell,Akron,330-393-2172,27037 Northridge Circle,OH
Adams Collyns,Orange,760-467-5149,5 Grover Avenue,CA
Lorilyn Robjohns,Greensboro,910-688-3573,02629 Hoffman Lane,NC
Krystle Pineaux,Houston,281-980-0459,00983 Ridge Oak Plaza,TX
Leah Di Iorio,Naples,941-554-7626,66 Old Gate Lane,FL
Tammara Scurrell,Hollywood,305-339-0428,2692 Toban Lane,FL
Edna Brill,Peoria,309-477-2827,1099 Stephen Crossing,IL
Morry Elverstone,Moreno Valley,951-403-3606,5328 Sycamore Place,CA
Libby Silson,Oklahoma City,405-649-3675,19 Katie Parkway,OK
Carol-jean Cearley,Seattle,206-331-9825,5 Reinke Court,WA
Clair Scrivens,Springfield,217-127-6150,7 Gerald Place,IL
Cristi Eastway,Minneapolis,612-982-6779,815 Jenifer Alley,MN
Staci Norrey,Oklahoma City,405-804-5325,040 Lakewood Crossing,OK
Kalle Coggins,Tampa,813-326-8342,39 Garrison Street,FL
Dayle Delacroux,Mesa,602-840-3016,8729 Mallard Drive,AZ
Margaretta Corton,Austin,512-974-9101,9 Sunnyside Street,TX
Stanly Stubbs,Dallas,214-891-8666,5430 Glacier Hill Crossing,TX
Valle Masedon,Pompano Beach,754-661-7505,09 Hanson Lane,FL
Clari Guilloton,Louisville,502-141-0071,6 Haas Court,KY
Angelique Urry,Saint Paul,651-800-5756,6 Corben Pass,MN
Zia Cream,Santa Monica,818-365-4414,46391 Nancy Road,CA
Lewiss Bentsen,Wilmington,910-880-2765,57 Duke Avenue,NC
Constantia Dollimore,Laurel,301-364-4322,31090 Packers Parkway,MD
Rebekah Wippermann,Akron,330-649-9424,1 North Junction,OH
Lilyan Lansbury,Bismarck,701-731-8282,0 Wayridge Alley,ND
Cicely Cartmail,San Jose,408-625-1494,9 Bay Trail,CA
Eddy Vasilyevski,Spartanburg,864-402-8285,1 Parkside Pass,SC
Olly Pitcher,Pasadena,626-512-7765,61 Montana Terrace,CA
Luce Hanaby,Utica,315-802-5292,0759 Laurel Place,NY
Ravid Kilgrove,Orlando,407-951-1318,8 Chive Point,FL
Marlie Petera,San Antonio,830-251-1789,069 Warrior Circle,TX
Vidovik Mawer,Pittsburgh,412-547-0076,2818 Iowa Pass,PA
Kiele Izak,Shawnee Mission,913-537-4020,32678 Maywood Street,KS
Blythe Matitiaho,San Francisco,415-604-3806,92839 Milwaukee Junction,CA
Currie Crann,Albuquerque,505-107-1411,8 Mandrake Circle,NM
Josias Gebuhr,Cincinnati,513-881-3062,83198 Stone Corner Place,OH
Shena Carcass,Bradenton,941-834-3163,09 Forest Junction,FL
Berenice Pearsey,Reston,703-896-4026,7876 Hayes Court,VA
Cleve Waumsley,Evansville,812-533-4894,69 Norway Maple Parkway,IN
Clo Whyte,Toledo,419-869-7377,719 Iowa Drive,OH
Tani Jaouen,Suffolk,757-158-8180,388 Rowland Alley,VA
Piggy Benthall,Syracuse,315-523-5646,71923 Chive Hill,NY
Belicia de Nore,Richmond,804-765-4990,74 Haas Court,VA
Stephannie Grinikhin,San Diego,619-923-2680,2357 Dawn Crossing,CA
Cherey Jarry,Honolulu,808-600-4066,088 Wayridge Place,HI
Stephan Dack,Philadelphia,215-323-7042,4 Corry Plaza,PA
Lea Anear,Lansing,517-392-9271,4 Valley Edge Circle,MI
Marcelle Bennell,Sandy,801-580-4273,6 Westport Point,UT
Flss Robinet,Madison,608-302-0961,6 Huxley Pass,WI
Tessa Antonin,Toledo,419-556-1529,73 Namekagon Circle,OH
Hewet Odda,New Haven,203-511-8542,68011 Tennessee Avenue,CT
Hetti Fonteyne,Memphis,901-319-2642,7491 Steensland Parkway,TN
Jaclyn Burnie,Seattle,425-897-0111,7486 Marcy Place,WA
Marilee Auten,Pensacola,850-701-9532,3305 Shoshone Plaza,FL
Josias Faires,Fargo,701-759-6380,6655 Cherokee Road,ND
Lonnard Meatcher,Portland,207-173-1977,3620 Crest Line Way,ME
Jen Bowick,El Paso,915-253-9340,627 Blaine Lane,TX
Humberto Fleischer,Atlanta,678-982-2663,3 Dakota Terrace,GA
Shari Dempsey,Houston,713-177-6954,38 Warner Crossing,TX
Doug Jurick,Santa Cruz,831-723-4394,43116 Harper Road,CA
Sapphire Bartolomieu,New York City,212-167-3429,17090 Acker Court,NY
Kiri Bellefant,Farmington,248-573-4006,50189 Huxley Crossing,MI
Tatiana Gunda,Houston,713-283-7323,0383 International Pass,TX
Shanta Mongain,Pasadena,818-449-8567,1560 Towne Crossing,CA
Tracy Vassall,Austin,512-864-5520,72 Gale Hill,TX
Kahlil Keetch,Denver,720-534-8695,51 Straubel Junction,CO
Delaney Haliburton,Bethesda,301-606-3573,8874 Mcguire Pass,MD
Cornelia Pumfrey,Louisville,502-471-0793,5 Fulton Court,KY
Peggy Jacobovitch,Atlanta,404-278-5119,8217 Sunnyside Circle,GA
Mohandis De Gouy,Tucson,520-774-8459,31952 Stuart Hill,AZ
Maudie Hallstone,Watertown,978-778-4137,8 Raven Circle,MA
Terrell Eivers,Herndon,757-489-2098,23278 Ridgeview Avenue,VA
Leroi Haveline,Fresno,559-701-1736,174 Fisk Hill,CA
Sarine Buckham,Saint Louis,314-908-4051,37747 Brickson Park Park,MO
Valerie Brahms,Washington,202-850-1266,5076 Morrow Pass,DC
Wallace Cradduck,Brooklyn,718-484-3010,86 Mosinee Road,NY
Glennis Sallan,Houston,281-674-5121,50 Fair Oaks Drive,TX
Reynard Norcutt,Colorado Springs,719-431-9008,8 Shoshone Circle,CO
Alasteir Navarro,Orlando,407-505-7714,5 Buhler Point,FL
Donni Paynes,Beaverton,503-172-4214,2085 Novick Point,OR
Louise Giraudel,Johnstown,814-981-7974,38 Forest Pass,PA
Esme Laight,Salem,503-292-8319,323 Oak Court,OR
Stefanie Kittless,San Francisco,510-937-0364,8 Victoria Place,CA
Belia Navein,Cleveland,440-222-4178,80253 Hayes Road,OH
Orton Eisikowitz,Springfield,217-671-0850,22399 Mallory Avenue,IL
Devlin Chaudret,Memphis,901-105-3446,26712 Arrowood Lane,TN
Callie Omand,Huntsville,256-435-4873,6 Sommers Plaza,AL
Berri Duffil,Fort Worth,682-208-9180,731 Arapahoe Lane,TX
Marne Botha,Miami,954-553-8483,9413 Grover Court,FL
Dru Ruzic,Charlotte,704-734-1789,028 Forest Dale Point,NC
Vivie Van den Oord,Tyler,903-818-5422,489 Hollow Ridge Center,TX
Jud Perl,Des Moines,515-180-3444,5 Sloan Pass,IA
Robenia McPaik,Houston,713-176-9308,41 Westridge Place,TX
Stevie Georgelin,Saint Louis,314-525-5230,1 Red Cloud Trail,MO
Harrietta Caze,San Jose,408-553-5232,19045 Swallow Circle,CA
Biddy Boutton,Houston,713-650-9608,99654 Stang Place,TX
Wade Nijs,Washington,202-266-3620,3 Birchwood Place,DC
Emiline Farrin,Seattle,425-497-4058,4 Bunker Hill Center,WA
Kristal Cutajar,Detroit,313-343-3227,46 Eagle Crest Avenue,MI
Gweneth Satyford,Alexandria,202-420-5435,9 Lillian Court,VA
Thomasina Tuxell,Chattanooga,423-891-3963,43526 Harper Junction,TN
Caria Souster,Shreveport,318-712-3282,0 Pepper Wood Pass,LA
Silva Cooksley,Milwaukee,414-295-9058,6 Straubel Court,WI
Ines Laxtonne,Oklahoma City,405-317-7440,4512 Kipling Drive,OK
Padraic Smittoune,Greeley,970-363-2652,23357 Victoria Junction,CO
Marsha Waghorne,Sioux Falls,605-393-3827,0786 Summit Park,SD
Gill Rowly,Houston,281-756-4849,05282 Lunder Road,TX
Mignon Gillet,Reading,484-700-4802,765 Tomscot Circle,PA
Bellanca Basten,Stockton,209-816-3075,3 Jana Center,CA
Bari Scutter,Irvine,714-412-8749,28 Glacier Hill Plaza,CA
Joline Mapledoore,Rochester,585-787-3667,51 Manitowish Drive,NY
Bethany Shapter,Cincinnati,513-399-1493,721 Hollow Ridge Park,OH
Nariko Anker,Bakersfield,661-238-2848,21 Union Road,CA
Larry Loughton,Mobile,251-504-0277,431 Gale Drive,AL
Selena Sueter,San Jose,408-704-7045,15 Old Shore Alley,CA
Filia Detoc,Denver,719-146-7871,966 Dixon Park,CO
Linnet Djurdjevic,Fort Lauderdale,954-405-4533,01 Talmadge Circle,FL
Odo Tilt,Saginaw,989-636-8947,5976 5th Plaza,MI
Timmy Gascoine,Houston,713-839-7883,47 Farwell Crossing,TX
Lauryn Ludlom,Prescott,520-179-9283,636 Sullivan Place,AZ
Marlena Colls,Spartanburg,864-502-2523,97 Bellgrove Trail,SC
Tressa Pinnigar,Louisville,502-398-8993,1165 Hauk Avenue,KY
Barn Emmitt,Corona,951-354-1816,23 Moulton Alley,CA
Nelle Brecon,Albany,518-761-6540,9 Sloan Plaza,NY
Sarena Kennagh,Kansas City,913-422-4523,2 Farmco Pass,KS
Caitlin Mattheis,Fresno,559-631-7353,87776 Fieldstone Terrace,CA
Tabbitha Fleeman,Columbia,803-721-2238,3 Main Street,SC
Lelia Fieller,Charleston,304-773-1363,32164 Myrtle Trail,WV
Floris Macia,Orlando,321-886-8585,7 Sheridan Parkway,FL
Leontine Arnke,Lansing,517-291-1971,559 Kedzie Crossing,MI
Tiffany Paulot,Cincinnati,513-406-3037,8 Steensland Junction,OH
Tulley Cammack,Bakersfield,661-933-6424,034 2nd Crossing,CA
Corabel Cantrill,Bradenton,941-273-4611,87 Stoughton Road,FL
Simone Bellhouse,Dallas,214-322-4095,84062 Forest Dale Junction,TX
Tish Garlinge,Long Beach,562-721-1379,96 Coolidge Terrace,CA
Muhammad Ruppeli,Tampa,813-967-5765,9 Heffernan Plaza,FL
Pat Gwioneth,Lexington,859-598-2941,01954 Mandrake Trail,KY
Ephrem Coverdale,Winston Salem,336-309-6771,7304 Towne Circle,NC
Rosalynd Flanigan,Miami,786-712-7840,00871 Annamark Parkway,FL
Parrnell Linley,Evansville,812-638-3707,1 Granby Avenue,IN
Winni Abramovitch,Huntsville,256-942-6738,7 Bunting Trail,AL
Maddy MacFie,Chicago,312-883-6983,4 Laurel Alley,IL
Richie Philpott,New Orleans,504-176-5922,28 Dawn Hill,LA
Sophronia McIntee,Phoenix,623-905-3316,08 Glacier Hill Circle,AZ
Dina Filippozzi,Houston,713-518-8145,84 Miller Junction,TX
Ingrim Longforth,Charlotte,704-989-2371,33069 Dunning Place,NC
Leona Lippitt,Kansas City,816-492-0512,11400 Surrey Crossing,MO
Sascha Napthine,Loretto,763-969-8781,26680 Everett Park,MN
Stormi Merck,Houston,713-329-4832,9004 Lindbergh Point,TX
Winfred Gayforth,Amarillo,806-776-0820,6766 Spenser Terrace,TX
Sonya Issac,Baton Rouge,225-895-4690,0 Longview Parkway,LA
Zaria Ord,Dallas,972-212-1939,84210 Transport Pass,TX
Jefferson McCrillis,Cumming,706-539-0052,6647 Derek Alley,GA
Chris Werrett,Fresno,559-989-1472,71 Annamark Terrace,CA
Bartram Folkerd,Lancaster,661-660-1941,549 Northland Terrace,CA
Katy Hitzke,Austin,512-823-7947,30596 Stone Corner Road,TX
Camel Rubinek,Oklahoma City,405-959-9572,9 John Wall Park,OK
Earlie Brazil,Portland,971-538-0382,57 Union Junction,OR
Esdras Andree,West Hartford,860-736-4437,49134 Spenser Point,CT
Fidela Hamper,Tacoma,253-147-4494,63554 Ohio Avenue,WA
Luz Folkerd,Jacksonville,904-502-2537,71241 Bunting Way,FL
Maggie Rubinfajn,South Lake Tahoe,530-211-9042,712 Acker Drive,CA
Noreen Filipychev,San Jose,408-656-1913,4 Mockingbird Pass,CA
Sydney Bentz,Des Moines,515-175-8972,4 Commercial Court,IA
Lonnie Trotton,Seattle,206-537-3566,7433 Holmberg Pass,WA
Baxter Waite,Dallas,469-900-5134,6 Barnett Junction,TX
Issie Du Pre,Houston,713-476-3878,74 Kinsman Parkway,TX
Marquita Grimstead,Wichita,316-938-0535,0 Carioca Park,KS
Osbourne Batalini,Lubbock,806-605-3232,36180 Onsgard Junction,TX
Paula Menpes,Johnstown,814-766-7642,0775 Algoma Center,PA
Pete Pevsner,Austin,512-946-0723,511 Anniversary Place,TX
Linn Schechter,Aurora,303-679-9279,9373 Pond Court,CO
Cary Pascho,Little Rock,501-573-9565,62 Tony Terrace,AR
Farrand Iddins,Lakeland,863-889-5806,194 Melvin Terrace,FL
Noami Harp,Denver,303-451-6434,34 Boyd Terrace,CO
Loralie Insworth,Pittsburgh,412-192-0033,6727 Ilene Place,PA
Mathias Myner,Minneapolis,612-551-9844,06 Novick Terrace,MN
Sherlocke Guerner,Glendale,602-633-7423,842 Heffernan Parkway,AZ
Costanza Blackaller,Portland,503-598-0754,37548 Oneill Drive,OR
Hendrick Chelsom,Washington,202-236-8637,738 High Crossing Hill,DC
Toby Verbrugghen,Jersey City,201-476-2245,25 Westport Plaza,NJ
Knox Meininger,Washington,202-152-5880,38794 Judy Court,DC
Aube Seager,Midland,432-173-2163,43795 Esch Point,TX
Gilemette Riolfi,Roanoke,540-928-7840,8 Surrey Terrace,VA
Michael Wilman,Los Angeles,310-932-0536,531 Eastwood Drive,CA
Nettle Weald,Rochester,585-299-5187,625 Randy Terrace,NY
Balduin Crimmins,Houston,936-347-3865,805 Calypso Way,TX
Vivian Pimlock,Providence,401-290-0396,4 Fair Oaks Center,RI
Donni Lightwing,Jefferson City,573-302-3868,628 Amoth Trail,MO
Tami Frango,Houston,832-846-4700,478 Warner Road,TX
Lorne Swinden,Miami,786-625-9571,8 Veith Plaza,FL
Cordula Ruvel,Mobile,251-917-7846,20356 Doe Crossing Junction,AL
Cybill Benwell,Honolulu,808-593-4541,1815 Crownhardt Trail,HI
Winnah Halligan,Tacoma,253-371-3186,2662 Dryden Circle,WA
Ryan Boxhall,Phoenix,602-627-1474,60 Del Sol Terrace,AZ
Dru Franzoli,Atlanta,404-489-0399,9967 Amoth Court,GA
Mel Mulberry,Saint Petersburg,727-270-4482,230 Carioca Hill,FL
Dal Kemitt,Akron,330-116-4920,33 Ruskin Road,OH
York Doelle,Washington,202-201-9400,1 Lighthouse Bay Parkway,DC
Taber Canizares,Indianapolis,317-696-1839,91969 Lakewood Gardens Plaza,IN
Ettie Pomery,Irvine,714-632-3296,54 Coleman Center,CA
Emeline Lux,Clearwater,727-405-7233,8 Melody Hill,FL
Christen Wesker,Wichita,316-775-4176,844 Loeprich Place,KS
Cheri McGerr,Aurora,312-308-6619,5 Lighthouse Bay Center,IL
Blair Galbreath,Kansas City,816-285-9482,82 Columbus Crossing,MO
Lazar Skinn,Cleveland,440-852-4245,1424 Goodland Avenue,OH
Gibb Chafer,San Francisco,415-245-1314,53 Parkside Pass,CA
Tomkin Kop,Sacramento,916-183-9104,312 Sutteridge Lane,CA
Jilly Sartain,Scranton,570-651-7853,4822 Eagle Crest Park,PA
Dionisio Bradford,Visalia,559-387-4198,3 Marquette Way,CA
Winifield Dabbs,San Francisco,415-327-0722,13 Artisan Park,CA
Cob Hustler,Evansville,812-551-9877,031 Fuller Court,IN
Brennen Bigley,Hartford,860-175-0791,32 Sheridan Lane,CT
Holt Mucillo,Trenton,609-123-2851,1565 Spaight Parkway,NJ
Merrile Effnert,Washington,202-763-8919,6 Mifflin Parkway,DC
Merrili Duffie,Houston,713-788-4017,98485 High Crossing Place,TX
Inglis Prevett,Fresno,559-164-5948,6470 Messerschmidt Center,CA
Mata Worsalls,Boulder,303-751-3784,976 Alpine Court,CO
Lilia Sterman,Amarillo,806-759-1545,2980 Ryan Hill,TX
Shelley Ryding,Davenport,563-972-4385,88130 Northport Alley,IA
Raff Tompkiss,Saint Paul,651-322-8616,7 Merrick Alley,MN
Helenka Kestell,Toledo,419-248-2411,406 Del Sol Point,OH
Gareth Wrighton,Sacramento,916-697-3864,6 Southridge Way,CA
Irwin Hustings,Garden Grove,310-554-2062,31 Debs Terrace,CA
Marin Huggan,Aurora,303-599-1468,5 Maryland Street,CO
Nettle Hartness,Springfield,217-513-9068,75508 Union Crossing,IL
Anissa Baldry,Honolulu,808-142-8328,288 Springview Street,HI
Marijo Vial,Winston Salem,336-379-3825,139 Talmadge Lane,NC
Fonsie Eddis,Denver,303-168-8651,0935 Prairieview Point,CO
Pris Hatchett,Pompano Beach,754-150-4184,47 Sullivan Drive,FL
Sigrid Ojeda,Amarillo,806-155-6573,15459 Johnson Park,TX
Katee Mullinder,Knoxville,865-230-1402,9985 Butternut Point,TN
Felisha Knuckles,Fort Worth,817-757-1369,75 Blue Bill Park Parkway,TX
Kally Matcham,Raleigh,919-309-7872,046 Erie Avenue,NC
Lanae Broadbury,Bakersfield,661-173-4298,76 Ridgeview Terrace,CA
Clevie Snow,Houston,832-924-2869,42300 Cambridge Road,TX
Orelle Fackney,Paterson,862-721-5158,65 Farwell Park,NJ
Julio Sellek,Gainesville,352-374-3667,98899 Milwaukee Avenue,FL
Ashton Koopman,Tulsa,918-968-1472,9 Paget Terrace,OK
Norby Brose,Anaheim,562-446-7255,352 Chive Avenue,CA
Arturo Attack,Atlanta,404-318-3245,8908 Coolidge Plaza,GA
Lora Daudray,Santa Ana,213-423-0618,06 Oakridge Point,CA
Archy Fosbraey,Dallas,214-804-4638,6 Park Meadow Terrace,TX
Nappy Cheston,Little Rock,501-173-2756,12 Calypso Place,AR
Miller Beaumont,Washington,202-526-6579,3153 Reindahl Street,DC
Francklyn Dielhenn,Mesa,480-911-3887,80 Laurel Pass,AZ
Shalom Burch,Montgomery,334-138-3258,4588 Kipling Pass,AL
Minta Canizares,Raleigh,919-284-1500,38 Reindahl Crossing,NC
Dmitri Harbison,Elmira,607-324-9970,80 Mallard Hill,NY
Berenice Kinnard,Van Nuys,213-114-5869,0938 Oakridge Parkway,CA
Brooke Males,Clearwater,727-323-1458,98 Dottie Street,FL
Tania Di Ruggiero,Toledo,419-966-3157,782 Forster Hill,OH
Cahra Brody,Beaumont,409-711-0474,08673 Parkside Circle,TX
Man Borris,San Diego,619-327-5665,1194 Roxbury Pass,CA
Eberto Favelle,Houston,713-888-4770,825 Myrtle Pass,TX
Catlaina Nurden,Miami,305-301-8759,72 Sugar Pass,FL
Morey Gilyott,Newark,302-368-0607,45 Luster Plaza,DE
Alwyn Lahy,Salt Lake City,801-532-8585,8891 Fieldstone Park,UT
Delcina Crighton,Columbus,706-461-8347,0914 Sachtjen Terrace,GA
Bliss Selbie,Beaufort,843-973-0277,850 Johnson Pass,SC
Iosep Spadelli,Meridian,601-669-8017,62012 Fulton Alley,MS
Jareb Dellit,West Hartford,860-179-4881,8960 Carpenter Lane,CT
Frederique Gianelli,Cincinnati,513-572-3736,25 Mayfield Junction,OH
Algernon Cowitz,Evansville,812-428-3923,40 Hoffman Road,IN
Raleigh Dell Casa,Norfolk,757-382-2262,848 Evergreen Road,VA
Lena Olivia,Dayton,937-573-4946,19 Sheridan Circle,OH
Durante Devany,Houston,713-702-8474,3 Ilene Trail,TX
Kassia Juggins,Sarasota,941-787-0541,559 Monica Lane,FL
Giselbert Cecely,Monticello,763-239-5136,65289 Maryland Junction,MN
Aldridge Castagnaro,Akron,330-920-2376,819 Debra Pass,OH
Wilfred Imlen,Jackson,601-942-0654,44 Bartelt Trail,MS
Fifi McConville,Winston Salem,336-231-5746,65 Corben Point,NC
Aldo Wix,El Paso,915-742-8869,7 Dovetail Terrace,TX
Sianna Drover,Baton Rouge,225-985-5325,73 Bartillon Hill,LA
Revkah Lutas,Athens,706-823-8948,29 Lighthouse Bay Circle,GA
Noby McKennan,San Jose,408-255-8935,65 Old Shore Parkway,CA
Ethan Redmire,Sioux City,712-648-6300,47 Stone Corner Way,IA
Alf Linscott,Orlando,407-978-7792,09 East Way,FL
Martica Trebble,Columbia,803-203-2749,8428 Melvin Park,SC
Meghan Humbee,Baltimore,301-489-6204,2114 Eagle Crest Place,MD
Sibley Surgison,Saint Louis,314-269-5616,6 Maryland Circle,MO
Pamela Davy,Houston,713-260-7840,6 Bartelt Hill,TX
Gaultiero Oak,Oklahoma City,405-286-2368,52 Service Terrace,OK
Flo Dinzey,Minneapolis,612-708-6659,7 1st Point,MN
Carlen O'Noland,Oakland,415-485-0617,0 Bultman Alley,CA
Kipp Hunt,Philadelphia,215-384-6392,6427 Westerfield Circle,PA
Guglielmo Toquet,Frankfort,502-119-9595,067 Dwight Alley,KY
Eb Bilsford,Salt Lake City,801-131-8076,6 Oriole Parkway,UT
Alleen Goulstone,Minneapolis,612-635-5557,8 Gina Avenue,MN
Joe Rostron,Tempe,602-761-5715,82 Ludington Trail,AZ
Leanna Beernt,Phoenix,480-868-2772,4 Continental Way,AZ
Kermie Diche,Montgomery,334-991-0328,6 Shelley Hill,AL
Norma Van Niekerk,Wichita,316-295-1433,349 Monterey Court,KS
Lynette Flexman,Naples,239-841-1351,7 Brickson Park Plaza,FL
Titus Lynde,Columbus,614-139-1757,277 Westend Parkway,OH
Ebba Fley,Phoenix,602-429-8595,4178 Waywood Plaza,AZ
Fidelity Worden,Akron,234-144-9803,49 Reindahl Point,OH
Darin Biles,Birmingham,205-763-0817,18966 Macpherson Park,AL
Doreen Targetter,Johnstown,814-798-3006,29990 Grover Park,PA
Gabriell Clougher,Louisville,502-767-0034,238 Bunker Hill Drive,KY
Yardley Saladin,Port Charlotte,941-106-4381,22 Eggendart Hill,FL
Chrissie Ciccone,Amarillo,806-347-3265,48489 International Place,TX
Minna Avey,Springfield,937-143-8575,24 Lunder Center,OH
Alisun Pinock,Warren,586-383-6949,79 Dexter Plaza,MI
Lib Lucock,Springfield,217-186-1277,89929 Ryan Terrace,IL
Kata Radden,Jackson,601-317-0560,092 Dapin Street,MS
Alexandra Vasechkin,Grand Rapids,616-973-5458,7 Dawn Trail,MI
Sallie Murrison,Charlotte,704-255-1889,114 Elgar Plaza,NC
Shoshana Critchell,Atlanta,404-365-1373,65 Esker Drive,GA
